[{"OBJECT_NAME":"OBJECT F","OBJECT_ID":"2023-072F","EPOCH":"2026-03-09T23:31:37.259904","MEAN_MOTION":15.29470958,"ECCENTRICITY":0.00062878,"INCLINATION":97.5173,"RA_OF_ASC_NODE":265.798,"ARG_OF_PERICENTER":19.0017,"MEAN_ANOMALY":341.1456,"EPHEMERIS_TYPE":0,"CLASSIFICATION_TYPE":"U","NORAD_CAT_ID":56748,"ELEMENT_SET_NO":999,"REV_AT_EPOCH":15460,"BSTAR":0.00043416252,"MEAN_MOTION_DOT":0.00012341,"MEAN_MOTION_DDOT":0},{"OBJECT_NAME":"STARLINK-35381","OBJECT_ID":"2025-221D","EPOCH":"2026-03-09T10:05:31.501536","MEAN_MOTION":15.30240191,"ECCENTRICITY":0.00010375,"INCLINATION":53.1591,"RA_OF_ASC_NODE":89.493,"ARG_OF_PERICENTER":86.1717,"MEAN_ANOMALY":273.9403,"EPHEMERIS_TYPE":0,"CLASSIFICATION_TYPE":"U","NORAD_CAT_ID":65826,"ELEMENT_SET_NO":999,"REV_AT_EPOCH":2604,"BSTAR":0.0007572518,"MEAN_MOTION_DOT":0.00022163,"MEAN_MOTION_DDOT":0}]
